MEAN_MOTION;ECCENTRICITY;INCLINATION;RA_OF_ASC_NODE;ARG_OF_PERICENTER;MEAN_ANOMALY;BSTAR;MEAN_MOTION_DOT;MEAN_MOTION_DDOT;TYPE
1.00272501;0.0002953;0.2132;101.4926;242.3736;79.3529;0;-1.97E-6;0;Intelsat
1.00272499;0.0002962;0.2142;101.4618;243.2688;233.969;0;-1.99E-6;0;Intelsat
1.00272244;0.0002983;0.216;101.4226;244.5762;131.8511;0;-2.02E-6;0;Intelsat
1.00272024;0.0002961;0.2172;101.3939;248.4653;309.3785;0;-2.04E-6;0;Intelsat
1.00271912;0.0002974;0.2183;101.3721;249.5281;103.8179;0;-2.05E-6;0;Intelsat
1.00271784;0.0002969;0.2198;101.3257;251.4482;309.2624;0;-2.07E-6;0;Intelsat
1.00271693;0.0002981;0.2209;101.2999;252.5632;103.6706;0;-2.07E-6;0;Intelsat
1.00271593;0.0002971;0.2223;101.2522;254.3967;309.215;0;-2.09E-6;0;Intelsat
1.00271436;0.0002969;0.2249;101.1762;257.7257;308.7614;0;-2.1E-6;0;Intelsat
1.0027139;0.0002979;0.226;101.1479;259.026;102.9611;0;-2.1E-6;0;Intelsat
1.0027131;0.0002974;0.2282;101.0786;262.0498;51.0029;0;-2.1E-6;0;Intelsat
1.00271308;0.0002981;0.2285;101.0698;262.598;102.2658;0;-2.09E-6;0;Intelsat
1.00271259;0.0002974;0.2308;101.0035;265.6269;76.2194;0;-2.09E-6;0;Intelsat
1.00271259;0.0002976;0.231;100.9969;265.9476;104.5382;0;-2.09E-6;0;Intelsat
1.00271237;0.000297;0.2332;100.9321;268.8061;75.8875;0;-2.08E-6;0;Intelsat
1.00271238;0.0002971;0.2334;100.924;269.115;101.5109;0;-2.08E-6;0;Intelsat
1.00271222;0.0002963;0.2355;100.8567;271.8457;75.7453;0;-2.07E-6;0;Intelsat
1.00271204;0.0002954;0.2377;100.7756;274.7918;75.6689;0;-2.06E-6;0;Intelsat
1.00271206;0.0002952;0.2379;100.7658;275.0907;101.2966;0;-2.05E-6;0;Intelsat
1.00271173;0.000294;0.24;100.693;277.5498;91.1914;0;-2.05E-6;0;Intelsat
1.00271126;0.0002933;0.2412;100.6484;278.9573;293.1062;0;-2.04E-6;0;Intelsat
1.00271116;0.0002927;0.2422;100.6176;279.9562;95.4554;0;-2.04E-6;0;Intelsat
1.00271093;0.0002917;0.2428;100.6038;280.6585;197.6741;0;-2.04E-6;0;Intelsat
1.002771;0.0002737;0.2433;100.6062;272.1017;291.4653;0;-2.03E-6;0;Intelsat
1.0027456;0.0002637;0.244;100.5829;270.0888;37.1255;0;-2.03E-6;0;Intelsat
1.00273523;0.0002652;0.2444;100.5612;268.8248;116.1619;0;-2.03E-6;0;Intelsat
1.00273317;0.0002648;0.2456;100.5238;269.8659;325.096;0;-2.02E-6;0;Intelsat
1.00273285;0.0002635;0.2465;100.5005;270.4778;117.3784;0;-2.02E-6;0;Intelsat
1.00273164;0.000261;0.2485;100.4515;271.8666;92.9315;0;-2.01E-6;0;Intelsat
1.00273154;0.0002607;0.2487;100.4451;271.9674;118.7264;0;-2.0E-6;0;Intelsat
1.00273009;0.0002585;0.2507;100.3823;273.0369;100.3708;0;-1.99E-6;0;Intelsat
1.00272818;0.0002562;0.253;100.3051;274.0466;122.399;0;-1.97E-6;0;Intelsat
1.00272776;0.0002555;0.2534;100.2988;274.2772;196.281;0;-1.96E-6;0;Intelsat
1.00272653;0.0002547;0.2546;100.2549;275.0029;46.5608;0;-1.95E-6;0;Intelsat
1.00268132;0.0002369;0.2556;100.2147;269.907;207.1577;0;-1.95E-6;0;Intelsat
1.00267956;0.000236;0.2571;100.149;269.805;106.4658;0;-1.93E-6;0;Intelsat
1.00271319;0.0002054;0.2577;100.1412;267.8898;220.8267;0;-1.92E-6;0;Intelsat
1.00274306;0.0002156;0.2583;100.096;262.1807;321.4904;0;-1.91E-6;0;Intelsat
1.00273837;0.0002139;0.2592;100.0649;261.3325;117.8372;0;-1.9E-6;0;Intelsat
1.0027374;0.0002149;0.2604;100.0279;261.3784;325.1684;0;-1.89E-6;0;Intelsat
1.00273621;0.0002148;0.2613;99.9827;262.5572;116.247;0;-1.88E-6;0;Intelsat
1.00273553;0.000216;0.2621;99.9658;262.0438;252.3592;0;-1.87E-6;0;Intelsat
1.00273026;0.0002018;0.2681;100.0234;260.1059;78.5219;0;-1.86E-6;0;Intelsat
1.00273012;0.0002023;0.2684;100.0141;260.1108;130.3621;0;-1.86E-6;0;Intelsat
1.0027278;0.0002043;0.2705;99.9685;260.212;117.2542;0;-1.88E-6;0;Intelsat
1.00272775;0.0002044;0.2706;99.9661;260.2221;133.0999;0;-1.87E-6;0;Intelsat
1.00272676;0.0002055;0.2713;99.9478;260.1953;262.7032;0;-1.88E-6;0;Intelsat
1.0027247;0.0002062;0.2733;99.9287;260.1238;241.0054;0;-1.91E-6;0;Intelsat
1.00272116;0.0002063;0.277;99.8992;260.1515;134.932;0;-1.97E-6;0;Intelsat
1.00272107;0.0002061;0.2771;99.8957;260.1668;141.6469;0;-1.97E-6;0;Intelsat
1.00271902;0.0002057;0.2794;99.878;260.2503;144.3703;0;-2.0E-6;0;Intelsat
1.00271823;0.0002058;0.28;99.8713;260.2791;248.3777;0;-2.01E-6;0;Intelsat
1.00271652;0.0002058;0.282;99.8595;260.3128;211.7382;0;-2.03E-6;0;Intelsat
1.00270868;0.0002101;0.2865;99.7682;267.8318;145.2902;0;-2.05E-6;0;Intelsat
1.00270724;0.0002111;0.2889;99.7268;268.5899;147.3601;0;-2.05E-6;0;Intelsat
1.00270603;0.0002127;0.2905;99.6911;267.6455;47.4765;0;-2.05E-6;0;Intelsat
1.00270477;0.0002162;0.2923;99.6711;268.927;321.5409;0;-2.04E-6;0;Intelsat
1.00270381;0.0002294;0.2945;99.5766;273.9875;332.3488;0;-2.03E-6;0;Intelsat
1.00272389;0.0002657;0.2981;99.4642;283.7203;322.3045;0;-2.01E-6;0;Intelsat
1.00272299;0.0002657;0.2991;99.4516;284.2033;117.344;0;-2.01E-6;0;Intelsat
1.00272168;0.000266;0.3013;99.4296;284.9029;118.9335;0;-2.0E-6;0;Intelsat
1.00272179;0.0002664;0.3013;99.4285;284.9488;119.4269;0;-2.0E-6;0;Intelsat
1.00272146;0.0002658;0.3024;99.4155;285.3959;303.5224;0;-1.99E-6;0;Intelsat
1.00272065;0.0002664;0.3035;99.4068;285.4502;121.7541;0;-1.99E-6;0;Intelsat
1.00272068;0.0002667;0.3042;99.4006;285.9479;229.519;0;-1.99E-6;0;Intelsat
1.00272022;0.000267;0.3047;99.3944;286.1272;307.3082;0;-1.99E-6;0;Intelsat
1.00271948;0.000268;0.3058;99.3862;286.1805;126.534;0;-1.98E-6;0;Intelsat
1.00271839;0.0002503;0.3077;99.2815;295.0167;300.2583;0;-1.98E-6;0;Intelsat
1.00271775;0.0002505;0.3085;99.2786;295.0412;66.0399;0;-1.97E-6;0;Intelsat
1.00271651;0.0002633;0.3146;99.2509;301.7846;41.8435;0;-1.93E-6;0;Intelsat
1.00271607;0.0002631;0.315;99.2496;301.8816;119.4774;0;-1.92E-6;0;Intelsat
1.00271451;0.0002625;0.317;99.2386;302.2041;96.0514;0;-1.9E-6;0;Intelsat
1.00271438;0.0002625;0.3172;99.2377;302.2121;121.7722;0;-1.89E-6;0;Intelsat
1.00270887;0.0002554;0.3192;99.2851;299.0523;101.916;0;-1.87E-6;0;Intelsat
1.00270865;0.0002553;0.3194;99.2839;299.0384;141.464;0;-1.87E-6;0;Intelsat
1.00270803;0.0002547;0.3214;99.2552;297.1306;109.2253;0;-1.85E-6;0;Intelsat
1.00270817;0.0002586;0.3216;99.2519;297.647;141.8674;0;-1.84E-6;0;Intelsat
1.00270802;0.0002587;0.3218;99.2503;297.6466;173.7056;0;-1.84E-6;0;Intelsat
1.00273464;0.0002377;0.3239;99.1395;296.6803;291.4499;0;-1.81E-6;0;Intelsat
1.00273435;0.0002379;0.324;99.1394;296.8297;317.2179;0;-1.81E-6;0;Intelsat
1.00273292;0.0002368;0.3251;99.1318;296.2225;139.2315;0;-1.8E-6;0;Intelsat
1.00273191;0.0002361;0.3262;99.1227;296.3869;320.4602;0;-1.79E-6;0;Intelsat
1.00272955;0.0002343;0.3284;99.1039;296.3994;323.287;0;-1.79E-6;0;Intelsat
1.00272877;0.000233;0.329;99.0989;296.5981;66.7621;0;-1.79E-6;0;Intelsat
1.00272503;0.0002648;0.3358;99.0657;281.5758;64.2662;0;-1.84E-6;0;Intelsat
1.00272442;0.0002628;0.338;98.9687;283.2466;91.4141;0;-1.88E-6;0;Intelsat
1.0027202;0.0002616;0.3407;98.9821;284.0668;119.2877;0;-1.91E-6;0;Intelsat
1.00271859;0.0002627;0.3422;98.9947;284.3984;326.279;0;-1.93E-6;0;Intelsat
1.00271755;0.0002609;0.3432;98.9919;284.7332;121.411;0;-1.94E-6;0;Intelsat
1.00271757;0.0002611;0.3434;98.9904;284.8234;147.2395;0;-1.94E-6;0;Intelsat
1.0027171;0.0002617;0.3441;98.9964;284.9661;250.7588;0;-1.95E-6;0;Intelsat
1.00271561;0.00026;0.3456;98.9904;285.3365;123.61;0;-1.97E-6;0;Intelsat
1.00271561;0.0002601;0.3458;98.9887;285.4431;149.4369;0;-1.97E-6;0;Intelsat
1.00271373;0.0002605;0.348;98.9955;285.7464;126.0053;0;-1.98E-6;0;Intelsat
1.00271371;0.0002606;0.3482;98.9936;285.8432;151.8274;0;-1.98E-6;0;Intelsat
1.00271343;0.0002604;0.3488;98.9981;286.0456;239.0088;0;-1.98E-6;0;Intelsat
1.0027054;0.0002766;0.3571;99.0068;294.5981;76.4851;0;-1.96E-6;0;Intelsat
1.00270432;0.0002767;0.3584;99.0002;294.6575;283.7341;0;-1.95E-6;0;Intelsat
1.00270771;0.000297;0.362;99.0615;307.0692;317.0881;0;-1.95E-6;0;Intelsat
1.00272621;0.0002958;0.3691;99.0345;312.0213;303.4757;0;-1.92E-6;0;Intelsat
1.0027252;0.0002954;0.3693;99.0336;312.4776;328.9396;0;-1.92E-6;0;Intelsat
1.0027245;0.000295;0.3699;99.0264;312.5739;72.4988;0;-1.92E-6;0;Intelsat
1.0027216;0.0002872;0.3778;98.9599;318.162;260.7898;0;-1.86E-6;0;Intelsat
1.00272195;0.0002861;0.3777;98.9598;319.3102;259.6417;0;-1.86E-6;0;Intelsat
1.00271972;0.0002832;0.3791;98.9511;319.9055;128.289;0;-1.85E-6;0;Intelsat
1.00272001;0.0002829;0.38;98.9419;320.5261;283.1372;0;-1.84E-6;0;Intelsat
1.00271804;0.0002804;0.3812;98.9362;321.0856;112.7586;0;-1.82E-6;0;Intelsat
1.00271649;0.0002765;0.3833;98.9239;322.1792;105.7411;0;-1.8E-6;0;Intelsat
1.00271635;0.0002765;0.3834;98.9226;322.1999;135.2404;0;-1.8E-6;0;Intelsat
1.00271479;0.0002743;0.3855;98.9076;321.7605;108.9763;0;-1.78E-6;0;Intelsat
1.00271461;0.0002743;0.3856;98.9062;321.7501;138.6976;0;-1.77E-6;0;Intelsat
1.00271288;0.0002703;0.3876;98.8994;322.3701;111.1284;0;-1.76E-6;0;Intelsat
1.00271266;0.0002701;0.3878;98.897;322.3452;146.8665;0;-1.75E-6;0;Intelsat
1.0027106;0.0002613;0.3897;98.8882;325.5567;110.7394;0;-1.74E-6;0;Intelsat
1.00271007;0.000261;0.3903;98.8844;325.555;212.3354;0;-1.74E-6;0;Intelsat
1.00270848;0.0002583;0.3919;98.8762;325.5416;113.5722;0;-1.74E-6;0;Intelsat
1.00270775;0.0002571;0.3925;98.8734;325.1475;217.6041;0;-1.74E-6;0;Intelsat
1.00270666;0.0002565;0.3941;98.8657;324.6967;117.2099;0;-1.75E-6;0;Intelsat
1.00270557;0.0002542;0.3962;98.8595;324.1293;94.6622;0;-1.76E-6;0;Intelsat
1.00270549;0.0002548;0.3963;98.855;324.2314;122.8797;0;-1.76E-6;0;Intelsat
1.00270537;0.0002554;0.3966;98.8572;324.5239;171.9968;0;-1.77E-6;0;Intelsat
1.00271663;0.000238;0.4053;98.8113;319.8065;340.6571;0;-1.88E-6;0;Intelsat
1.00271595;0.0002382;0.4063;98.8024;320.0685;135.8907;0;-1.89E-6;0;Intelsat
1.00271411;0.0002402;0.4077;98.806;320.4977;342.7393;0;-1.91E-6;0;Intelsat
1.00271324;0.0002426;0.4087;98.7957;324.0939;134.6656;0;-1.92E-6;0;Intelsat
1.00271123;0.0002435;0.4109;98.7881;324.1139;111.5531;0;-1.94E-6;0;Intelsat
1.00271119;0.0002436;0.4111;98.7884;324.1813;137.4024;0;-1.94E-6;0;Intelsat
1.00270877;0.0002459;0.4134;98.7901;324.2355;133.3523;0;-1.94E-6;0;Intelsat
1.00270849;0.000246;0.4139;98.7953;324.4154;217.6723;0;-1.95E-6;0;Intelsat
1.00270731;0.0002462;0.4154;98.7866;324.4282;90.9233;0;-1.95E-6;0;Intelsat
1.0027057;0.0002457;0.4173;98.7764;324.579;41.7264;0;-1.94E-6;0;Intelsat
